NORAD_CAT_ID,OBJECT_NAME,OBJECT_TYPE,EPOCH,MEAN_MOTION,ECCENTRICITY,INCLINATION,RA_OF_ASC_NODE,ARG_OF_PERICENTER,MEAN_ANOMALY,BSTAR,MEAN_MOTION_DOT,MEAN_MOTION_DDOT,TLE_LINE0,TLE_LINE1,TLE_LINE2,SEMIMAJOR_AXIS,PERIOD,APOGEE,PERIGEE,DECAYED
53851.0,STARLINK-4755,PAYLOAD,2024-06-27 08:14:58,15.08833927,0.0001328,53.2153,198.7354,89.5461,270.5683,3.1152e-05,2.08e-06,0.0,0 STARLINK-4755,1 53851U 22114AK  24179.34373186  .00000208  00000-0  31152-4 0  9996,2 53851  53.2153 198.7354 0001328  89.5461 270.5683 15.08833927 99327,6917.899,95.438,540.683,538.845,0.0
53851.0,STARLINK-4755,PAYLOAD,2024-06-28 08:05:45,15.08838276,0.0001314,53.2148,194.2776,97.2982,262.816,6.3159e-05,7.17e-06,0.0,0 STARLINK-4755,1 53851U 22114AK  24180.33733171  .00000717  00000-0  63159-4 0  9998,2 53851  53.2148 194.2776 0001314  97.2982 262.8160 15.08838276 98931,6917.886,95.438,540.66,538.842,0.0
53851.0,STARLINK-4755,PAYLOAD,2024-06-29 09:31:55,15.08843285,0.0001259,53.2145,189.5178,90.3086,269.8051,0.00017189,2.449e-05,0.0,0 STARLINK-4755,1 53851U 22114AK  24181.39716817  .00002449  00000-0  17189-3 0  9998,2 53851  53.2145 189.5178 0001259  90.3086 269.8051 15.08843285 99098,6917.87,95.437,540.606,538.864,0.0
53851.0,STARLINK-4755,PAYLOAD,2024-06-29 17:28:50,15.08847485,0.000127,53.2139,188.0308,86.8008,273.313,0.00018822,2.709e-05,0.0,0 STARLINK-4755,1 53851U 22114AK  24181.72836591  .00002709  00000-0  18822-3 0  9991,2 53851  53.2139 188.0308 0001270  86.8008 273.3130 15.08847485 99686,6917.858,95.437,540.601,538.844,0.0
53851.0,STARLINK-4755,PAYLOAD,2024-06-30 04:36:33,15.08836043,0.0001617,53.2137,185.9491,81.2349,278.8826,-4.8245e-05,-1.056e-05,0.0,0 STARLINK-4755,1 53851U 22114AK  24182.19205344 -.00001056  00000-0 -48245-4 0  9998,2 53851  53.2137 185.9491 0001617  81.2349 278.8826 15.08836043 99214,6917.892,95.438,540.876,538.639,0.0
53851.0,STARLINK-4755,PAYLOAD,2024-06-30 09:22:42,15.08835378,0.000135,53.214,185.0573,83.3298,276.7848,-4.8677e-05,-1.062e-05,0.0,0 STARLINK-4755,1 53851U 22114AK  24182.39077369 -.00001062  00000-0 -48677-4 0  9990,2 53851  53.2140 185.0573 0001350  83.3298 276.7848 15.08835378 99783,6917.895,95.438,540.693,538.826,0.0
53851.0,STARLINK-4755,PAYLOAD,2024-06-30 17:19:38,15.08838319,0.0001358,53.2143,183.5707,84.9689,275.1458,1.082e-05,-1.16e-06,0.0,0 STARLINK-4755,1 53851U 22114AK  24182.72197291 -.00000116  00000-0  10820-4 0  9991,2 53851  53.2143 183.5707 0001358  84.9689 275.1458 15.08838319 99831,6917.886,95.438,540.69,538.811,0.0
53851.0,STARLINK-4755,PAYLOAD,2024-07-01 06:02:43,15.08840784,0.0001324,53.2141,181.1916,84.4422,275.6721,6.0273e-05,6.71e-06,0.0,0 STARLINK-4755,1 53851U 22114AK  24183.25189261  .00000671  00000-0  60273-4 0  9990,2 53851  53.2141 181.1916 0001324  84.4422 275.6721 15.08840784 99374,6917.878,95.438,540.659,538.827,0.0
53851.0,STARLINK-4755,PAYLOAD,2024-07-01 07:38:07,15.08828318,0.0001463,53.2148,180.8958,85.9539,274.1621,0.0004432,6.77e-05,0.0,0 STARLINK-4755,1 53851U 22114AK  24183.31813964  .00006770  00000-0  44320-3 0  9991,2 53851  53.2148 180.8958 0001463  85.9539 274.1621 15.08828318 99385,6917.916,95.438,540.793,538.769,0.0
53851.0,STARLINK-4755,PAYLOAD,2024-07-01 17:10:25,15.08843717,0.0001454,53.2148,179.1113,82.8469,277.2689,9.1544e-05,1.169e-05,0.0,0 STARLINK-4755,1 53851U 22114AK  24183.71557172  .00001169  00000-0  91544-4 0  9999,2 53851  53.2148 179.1113 0001454  82.8469 277.2689 15.08843717 99442,6917.869,95.437,540.74,538.728,0.0
53851.0,STARLINK-4755,PAYLOAD,2024-07-02 09:04:16,15.088424,0.0001413,53.2144,176.1373,84.3823,275.733,0.00018024,2.582e-05,0.0,0 STARLINK-4755,1 53851U 22114AK  24184.37797360  .00002582  00000-0  18024-3 0  9998,2 53851  53.2144 176.1373 0001413  84.3823 275.7330 15.08842400100086,6917.873,95.437,540.716,538.761,0.0
53851.0,STARLINK-4755,PAYLOAD,2024-07-02 17:01:12,15.08844864,0.0001415,53.2144,174.6506,84.1273,275.9881,0.00018386,2.64e-05,0.0,0 STARLINK-4755,1 53851U 22114AK  24184.70917214  .00002640  00000-0  18386-3 0  9993,2 53851  53.2144 174.6506 0001415  84.1273 275.9881 15.08844864100131,6917.866,95.437,540.709,538.752,0.0
53851.0,STARLINK-4755,PAYLOAD,2024-07-03 04:08:54,15.08837775,0.0001456,53.2148,172.5695,84.5035,275.6123,4.5204e-05,4.31e-06,0.0,0 STARLINK-4755,1 53851U 22114AK  24185.17285592  .00000431  00000-0  45204-4 0  9998,2 53851  53.2148 172.5695 0001456  84.5035 275.6123 15.08837775 99660,6917.887,95.438,540.759,538.745,0.0
53851.0,STARLINK-4755,PAYLOAD,2024-07-03 08:55:03,15.08841327,0.0001469,53.2164,171.676,92.378,267.7381,6.9877e-05,8.24e-06,0.0,0 STARLINK-4755,1 53851U 22114AK  24185.37157384  .00000824  00000-0  69877-4 0  9995,2 53851  53.2164 171.6760 0001469  92.3780 267.7381 15.08841327100231,6917.876,95.437,540.758,538.725,0.0
53851.0,STARLINK-4755,PAYLOAD,2024-07-04 05:35:05,15.08836656,0.000145,53.2168,167.8098,94.5167,265.5991,1.6822e-05,-2e-07,0.0,0 STARLINK-4755,1 53851U 22114AK  24186.23269702 -.00000020  00000-0  16822-4 0  9990,2 53851  53.2168 167.8098 0001450  94.5167 265.5991 15.08836656 99823,6917.891,95.438,540.759,538.753,0.0
53851.0,STARLINK-4755,PAYLOAD,2024-07-04 08:45:51,15.08836492,0.0001458,53.217,167.2155,95.003,265.1129,-1.4404e-06,-3.11e-06,0.0,0 STARLINK-4755,1 53851U 22114AK  24186.36517758 -.00000311  00000-0 -14404-5 0  9990,2 53851  53.2170 167.2155 0001458  95.0030 265.1129 15.08836492100388,6917.891,95.438,540.765,538.747,0.0
53851.0,STARLINK-4755,PAYLOAD,2024-07-05 08:36:38,15.08841013,0.0001251,53.2156,162.7542,91.9829,268.1306,7.2355e-05,8.64e-06,0.0,0 STARLINK-4755,1 53851U 22114AK  24187.35877335  .00000864  00000-0  72355-4 0  9999,2 53851  53.2156 162.7542 0001251  91.9829 268.1306 15.08841013 99993,6917.877,95.437,540.608,538.877,0.0
53851.0,STARLINK-4755,PAYLOAD,2024-07-05 14:58:10,15.08848116,0.0001299,53.2164,161.5658,92.8633,267.2508,0.00011777,1.587e-05,0.0,0 STARLINK-4755,1 53851U 22114AK  24187.62372709  .00001587  00000-0  11777-3 0  9997,2 53851  53.2164 161.5658 0001299  92.8633 267.2508 15.08848116100035,6917.856,95.437,540.619,538.822,0.0
53851.0,STARLINK-4755,PAYLOAD,2024-07-05 22:55:06,15.08845181,0.0002356,53.2161,160.0785,83.4713,276.6548,0.00016382,2.32e-05,0.0,0 STARLINK-4755,1 53851U 22114AK  24187.95493156  .00002320  00000-0  16382-3 0  9996,2 53851  53.2161 160.0785 0002356  83.4713 276.6548 15.08845181100629,6917.865,95.437,541.359,538.1,0.0
53851.0,STARLINK-4755,PAYLOAD,2024-07-06 05:16:39,15.08828123,0.0001576,53.2181,158.8946,109.6907,250.4255,2.4948e-05,1.09e-06,0.0,0 STARLINK-4755,1 53851U 22114AK  24188.21990526  .00000109  00000-0  24948-4 0  9990,2 53851  53.2181 158.8946 0001576 109.6907 250.4255 15.08828123100121,6917.917,95.438,540.872,538.691,0.0
53851.0,STARLINK-4755,PAYLOAD,2024-07-06 21:10:30,15.0883549,0.0001329,53.2165,155.9167,98.7252,261.389,4.8961e-05,4.91e-06,0.0,0 STARLINK-4755,1 53851U 22114AK  24188.88230144  .00000491  00000-0  48961-4 0  9991,2 53851  53.2165 155.9167 0001329  98.7252 261.3890 15.08835490100225,6917.894,95.438,540.679,538.84,0.0
53851.0,STARLINK-4755,PAYLOAD,2024-07-07 06:42:49,15.08841318,0.000128,53.2165,154.1328,98.1354,261.9783,2.7418e-05,1.49e-06,0.0,0 STARLINK-4755,1 53851U 22114AK  24189.27973977  .00000149  00000-0  27418-4 0  9997,2 53851  53.2165 154.1328 0001280  98.1354 261.9783 15.08841318100827,6917.876,95.437,540.627,538.856,0.0
53851.0,STARLINK-4755,PAYLOAD,2024-07-08 01:47:27,15.08836615,0.0001328,53.2166,150.5643,102.2472,257.8669,0.00016849,2.394e-05,0.0,0 STARLINK-4755,1 53851U 22114AK  24190.07462082  .00002394  00000-0  16849-3 0  9996,2 53851  53.2166 150.5643 0001328 102.2472 257.8669 15.08836615100404,6917.891,95.438,540.674,538.837,0.0
53851.0,STARLINK-4755,PAYLOAD,2024-07-08 06:33:36,15.08840551,0.0001243,53.2159,149.6713,100.8015,259.3117,0.00015477,2.176e-05,0.0,0 STARLINK-4755,1 53851U 22114AK  24190.27333882  .00002176  00000-0  15477-3 0  9997,2 53851  53.2159 149.6713 0001243 100.8015 259.3117 15.08840551100977,6917.879,95.438,540.604,538.884,0.0
53851.0,STARLINK-4755,PAYLOAD,2024-07-08 14:30:31,15.08848241,0.0001348,53.2168,148.1842,83.0379,277.0766,0.00019468,2.812e-05,0.0,0 STARLINK-4755,1 53851U 22114AK  24190.60453397  .00002812  00000-0  19468-3 0  9999,2 53851  53.2168 148.1842 0001348  83.0379 277.0766 15.08848241100482,6917.855,95.437,540.653,538.788,0.0
53851.0,STARLINK-4755,PAYLOAD,2024-07-09 04:49:00,15.08840534,0.0001247,53.2159,145.5069,96.4591,263.6543,7.1852e-05,8.56e-06,0.0,0 STARLINK-4755,1 53851U 22114AK  24191.20070093  .00000856  00000-0  71852-4 0  9996,2 53851  53.2159 145.5069 0001247  96.4591 263.6543 15.08840534100577,6917.879,95.438,540.606,538.881,0.0
53851.0,STARLINK-4755,PAYLOAD,2024-07-09 14:21:18,15.08847216,0.0001275,53.2162,143.7235,92.6717,267.4421,0.00011975,1.619e-05,0.0,0 STARLINK-4755,1 53851U 22114AK  24191.59813564  .00001619  00000-0  11975-3 0  9993,2 53851  53.2162 143.7235 0001275  92.6717 267.4421 15.08847216101173,6917.858,95.437,540.605,538.841,0.0
53851.0,STARLINK-4755,PAYLOAD,2024-07-10 03:04:24,15.08837822,0.0001821,53.2165,141.3431,102.2846,257.835,9.1777e-07,-2.74e-06,0.0,0 STARLINK-4755,1 53851U 22114AK  24192.12806441 -.00000274  00000-0  91777-6 0  9997,2 53851  53.2165 141.3431 0001821 102.2846 257.8350 15.08837822100711,6917.887,95.438,541.012,538.492,0.0
53851.0,STARLINK-4755,PAYLOAD,2024-07-10 14:12:06,15.0884049,0.0001618,53.2171,139.2615,98.5803,261.5373,4.4051e-05,4.13e-06,0.0,0 STARLINK-4755,1 53851U 22114AK  24192.59174297  .00000413  00000-0  44051-4 0  9990,2 53851  53.2171 139.2615 0001618  98.5803 261.5373 15.08840490101322,6917.879,95.438,540.863,538.625,0.0
53851.0,STARLINK-4755,PAYLOAD,2024-07-10 22:09:02,15.08837173,0.0001505,53.2154,137.7757,96.9244,263.1919,0.00015875,2.239e-05,0.0,0 STARLINK-4755,1 53851U 22114AK  24192.92294578  .00002239  00000-0  15875-3 0  9991,2 53851  53.2154 137.7757 0001505  96.9244 263.1919 15.08837173101372,6917.889,95.438,540.795,538.713,0.0
